{"type":"FeatureCollection","features":[{"type":"Feature","geometry":{"geodesic":false,"type":"Polygon","coordinates":[[[-118.18918597492356,36.89865962132299],[-118.18918597492356,36.89839012673776],[-118.18909614339515,36.89839012673776],[-118.18909614339515,36.89847995826617],[-118.18891648033832,36.89847995826617],[-118.18891648033832,36.89856978979458],[-118.18909614339515,36.89856978979458],[-118.18909614339515,36.89865962132299],[-118.18918597492356,36.89865962132299]]]},"id":"-1315676+410753","properties":{"count":5,"label":1}},{"type":"Feature","geometry":{"geodesic":false,"type":"Polygon","coordinates":[[[-118.18918597492356,36.89928844202188],[-118.18918597492356,36.89892911590823],[-118.18891648033832,36.89892911590823],[-118.18891648033832,36.899198610493464],[-118.18909614339515,36.899198610493464],[-118.18909614339515,36.89928844202188],[-118.18918597492356,36.89928844202188]]]},"id":"-1315676+410760","properties":{"count":10,"label":1}},{"type":"Feature","geometry":{"geodesic":false,"type":"Polygon","coordinates":[[[-118.18927580645196,36.89991726272076],[-118.18927580645196,36.89964776813552],[-118.18918597492356,36.89964776813552],[-118.18918597492356,36.899468105078704],[-118.18909614339515,36.899468105078704],[-118.18909614339515,36.89937827355029],[-118.18891648033832,36.89937827355029],[-118.18891648033832,36.89955793660711],[-118.18909614339515,36.89955793660711],[-118.18909614339515,36.89964776813552],[-118.18918597492356,36.89964776813552],[-118.18918597492356,36.89991726272076],[-118.18927580645196,36.89991726272076]]]},"id":"-1315677+410767","properties":{"count":9,"label":1}},{"type":"Feature","geometry":{"geodesic":false,"type":"Polygon","coordinates":[[[-118.18936563798037,36.89865962132299],[-118.18927580645196,36.89865962132299],[-118.18927580645196,36.898749452851405],[-118.18936563798037,36.898749452851405],[-118.18936563798037,36.89865962132299]]]},"id":"-1315678+410754","properties":{"count":1,"label":1}},{"type":"Feature","geometry":{"geodesic":false,"type":"Polygon","coordinates":[[[-118.19107243702021,36.90764277416419],[-118.19107243702021,36.90746311110736],[-118.19125210007702,36.90746311110736],[-118.19125210007702,36.90728344805054],[-118.19107243702021,36.90728344805054],[-118.19107243702021,36.9070139534653],[-118.19125210007702,36.9070139534653],[-118.19125210007702,36.907103784993716],[-118.19134193160544,36.907103784993716],[-118.19134193160544,36.90719361652213],[-118.19143176313385,36.90719361652213],[-118.19143176313385,36.907373279578955],[-118.19152159466226,36.907373279578955],[-118.19152159466226,36.907552942635775],[-118.19170125771909,36.907552942635775],[-118.19170125771909,36.907373279578955],[-118.1917910892475,36.907373279578955],[-118.1917910892475,36.907103784993716],[-118.19170125771909,36.907103784993716],[-118.19170125771909,36.9070139534653],[-118.1917910892475,36.9070139534653],[-118.1917910892475,36.90692412193689],[-118.19188092077592,36.90692412193689],[-118.19188092077592,36.90674445888007],[-118.1917910892475,36.90674445888007],[-118.1917910892475,36.90665462735166],[-118.19161142619068,36.90665462735166],[-118.19161142619068,36.90683429040848],[-118.19152159466226,36.90683429040848],[-118.19152159466226,36.90692412193689],[-118.19143176313385,36.90692412193689],[-118.19143176313385,36.90683429040848],[-118.19116226854862,36.90683429040848],[-118.19116226854862,36.90674445888007],[-118.19089277396338,36.90674445888007],[-118.19089277396338,36.90665462735166],[-118.19053344784973,36.90665462735166],[-118.19053344784973,36.90683429040848],[-118.19062327937814,36.90683429040848],[-118.19062327937814,36.90728344805054],[-118.19080294243497,36.90728344805054],[-118.19080294243497,36.90746311110736],[-118.19089277396338,36.90746311110736],[-118.19089277396338,36.907552942635775],[-118.1909826054918,36.907552942635775],[-118.1909826054918,36.90764277416419],[-118.19107243702021,36.90764277416419]]]},"id":"-1315697+410853","properties":{"count":92,"label":1}},{"type":"Feature","geometry":{"geodesic":false,"type":"Polygon","coordinates":[[[-118.19143176313385,36.900905409533294],[-118.19143176313385,36.90081557800488],[-118.19152159466226,36.90081557800488],[-118.19152159466226,36.90072574647647],[-118.19170125771909,36.90072574647647],[-118.19170125771909,36.900635914948055],[-118.1917910892475,36.900635914948055],[-118.1917910892475,36.90027658883441],[-118.19170125771909,36.90027658883441],[-118.19170125771909,36.89991726272076],[-118.1917910892475,36.89991726272076],[-118.1917910892475,36.899737599663936],[-118.19161142619068,36.899737599663936],[-118.19161142619068,36.89982743119235],[-118.19152159466226,36.89982743119235],[-118.19152159466226,36.90009692577758],[-118.19143176313385,36.90009692577758],[-118.19143176313385,36.900635914948055],[-118.19134193160544,36.900635914948055],[-118.19134193160544,36.900905409533294],[-118.19143176313385,36.900905409533294]]]},"id":"-1315701+410778","properties":{"count":38,"label":1}},{"type":"Feature","geometry":{"geodesic":false,"type":"Polygon","coordinates":[[[-118.19188092077592,36.90647496429483],[-118.19188092077592,36.906385132766424],[-118.1917910892475,36.906385132766424],[-118.1917910892475,36.9062054697096],[-118.19161142619068,36.9062054697096],[-118.19161142619068,36.90647496429483],[-118.19188092077592,36.90647496429483]]]},"id":"-1315704+410840","properties":{"count":7,"label":1}},{"type":"Feature","geometry":{"geodesic":false,"type":"Polygon","coordinates":[[[-118.1940368774578,36.908002100277834],[-118.1940368774578,36.90791226874942],[-118.19421654051462,36.90791226874942],[-118.19421654051462,36.907822437221014],[-118.19448603509986,36.907822437221014],[-118.19448603509986,36.9077326056926],[-118.19457586662827,36.9077326056926],[-118.19457586662827,36.907822437221014],[-118.19493519274192,36.907822437221014],[-118.19493519274192,36.90764277416419],[-118.19484536121351,36.90764277416419],[-118.19484536121351,36.907552942635775],[-118.19457586662827,36.907552942635775],[-118.19457586662827,36.90746311110736],[-118.19421654051462,36.90746311110736],[-118.19421654051462,36.90728344805054],[-118.1940368774578,36.90728344805054],[-118.1940368774578,36.9070139534653],[-118.19367755134415,36.9070139534653],[-118.19367755134415,36.90656479582324],[-118.19358771981574,36.90656479582324],[-118.19358771981574,36.90629530123801],[-118.19376738287257,36.90629530123801],[-118.19376738287257,36.906385132766424],[-118.19385721440098,36.906385132766424],[-118.19385721440098,36.90656479582324],[-118.19412670898622,36.90656479582324],[-118.19412670898622,36.90629530123801],[-118.1940368774578,36.90629530123801],[-118.1940368774578,36.9062054697096],[-118.19412670898622,36.9062054697096],[-118.19412670898622,36.906115638181184],[-118.19430637204303,36.906115638181184],[-118.19430637204303,36.90629530123801],[-118.19421654051462,36.90629530123801],[-118.19421654051462,36.906385132766424],[-118.19448603509986,36.906385132766424],[-118.19448603509986,36.90602580665277],[-118.19457586662827,36.90602580665277],[-118.19457586662827,36.90593597512436],[-118.19448603509986,36.90593597512436],[-118.19448603509986,36.90584614359595],[-118.19421654051462,36.90584614359595],[-118.19421654051462,36.90593597512436],[-118.19412670898622,36.90593597512436],[-118.19412670898622,36.90602580665277],[-118.19385721440098,36.90602580665277],[-118.19385721440098,36.906115638181184],[-118.19376738287257,36.906115638181184],[-118.19376738287257,36.9062054697096],[-118.19340805675891,36.9062054697096],[-118.19340805675891,36.906115638181184],[-118.19322839370209,36.906115638181184],[-118.19322839370209,36.90593597512436],[-118.19313856217369,36.90593597512436],[-118.19313856217369,36.90584614359595],[-118.19322839370209,36.90584614359595],[-118.19322839370209,36.90575631206754],[-118.19313856217369,36.90575631206754],[-118.19313856217369,36.905666480539125],[-118.19295889911686,36.905666480539125],[-118.19295889911686,36.90530715442548],[-118.19286906758845,36.90530715442548],[-118.19286906758845,36.90503765984024],[-118.19277923606003,36.90503765984024],[-118.19277923606003,36.904947828311826],[-118.1925995730032,36.904947828311826],[-118.1925995730032,36.90485799678342],[-118.19188092077592,36.90485799678342],[-118.19188092077592,36.90476816525501],[-118.19170125771909,36.90476816525501],[-118.19170125771909,36.904678333726594],[-118.19161142619068,36.904678333726594],[-118.19161142619068,36.90458850219818],[-118.19152159466226,36.90458850219818],[-118.19152159466226,36.904229176084534],[-118.19143176313385,36.904229176084534],[-118.19143176313385,36.90413934455612],[-118.19116226854862,36.90413934455612],[-118.19116226854862,36.90386984997089],[-118.19125210007702,36.90386984997089],[-118.19125210007702,36.903780018442475],[-118.19134193160544,36.903780018442475],[-118.19134193160544,36.90369018691406],[-118.19152159466226,36.90369018691406],[-118.19152159466226,36.90360035538565],[-118.19134193160544,36.90360035538565],[-118.19134193160544,36.903330860800416],[-118.19152159466226,36.903330860800416],[-118.19152159466226,36.90297153468676],[-118.19161142619068,36.90297153468676],[-118.19161142619068,36.90288170315836],[-118.19170125771909,36.90288170315836],[-118.19170125771909,36.90270204010153],[-118.19197075230433,36.90270204010153],[-118.19197075230433,36.902791871629944],[-118.19224024688955,36.902791871629944],[-118.19224024688955,36.90288170315836],[-118.1925097414748,36.90288170315836],[-118.1925097414748,36.90297153468676],[-118.19286906758845,36.90297153468676],[-118.19286906758845,36.90306136621518],[-118.19295889911686,36.90306136621518],[-118.19295889911686,36.90315119774359],[-118.19313856217369,36.90315119774359],[-118.19313856217369,36.90306136621518],[-118.19358771981574,36.90306136621518],[-118.19358771981574,36.90288170315836],[-118.19385721440098,36.90288170315836],[-118.19385721440098,36.902791871629944],[-118.19394704592939,36.902791871629944],[-118.19394704592939,36.90270204010153],[-118.1940368774578,36.90270204010153],[-118.1940368774578,36.902791871629944],[-118.19430637204303,36.902791871629944],[-118.19430637204303,36.90288170315836],[-118.19439620357144,36.90288170315836],[-118.19439620357144,36.90270204010153],[-118.19448603509986,36.90270204010153],[-118.19448603509986,36.90261220857312],[-118.19493519274192,36.90261220857312],[-118.19493519274192,36.902342713987885],[-118.1947555296851,36.902342713987885],[-118.1947555296851,36.9024325455163],[-118.19439620357144,36.9024325455163],[-118.19439620357144,36.902342713987885],[-118.19448603509986,36.902342713987885],[-118.19448603509986,36.90225288245947],[-118.19439620357144,36.90225288245947],[-118.19439620357144,36.90216305093106],[-118.19430637204303,36.90216305093106],[-118.19430637204303,36.902342713987885],[-118.19394704592939,36.902342713987885],[-118.19394704592939,36.902522377044704],[-118.19358771981574,36.902522377044704],[-118.19358771981574,36.9024325455163],[-118.19322839370209,36.9024325455163],[-118.19322839370209,36.902522377044704],[-118.19313856217369,36.902522377044704],[-118.19313856217369,36.902791871629944],[-118.19286906758845,36.902791871629944],[-118.19286906758845,36.90270204010153],[-118.19268940453162,36.90270204010153],[-118.19268940453162,36.90261220857312],[-118.1925995730032,36.90261220857312],[-118.1925995730032,36.902522377044704],[-118.19215041536116,36.902522377044704],[-118.19215041536116,36.9024325455163],[-118.19188092077592,36.9024325455163],[-118.19188092077592,36.902522377044704],[-118.19170125771909,36.902522377044704],[-118.19170125771909,36.9024325455163],[-118.19143176313385,36.9024325455163],[-118.19143176313385,36.902342713987885],[-118.19134193160544,36.902342713987885],[-118.19134193160544,36.90225288245947],[-118.19116226854862,36.90225288245947],[-118.19116226854862,36.90216305093106],[-118.1909826054918,36.90216305093106],[-118.1909826054918,36.90198338787423],[-118.19116226854862,36.90198338787423],[-118.19116226854862,36.901893556345826],[-118.1909826054918,36.901893556345826],[-118.1909826054918,36.901624061760586],[-118.19116226854862,36.901624061760586],[-118.19116226854862,36.90135456717535],[-118.19125210007702,36.90135456717535],[-118.19125210007702,36.901085072590114],[-118.19107243702021,36.901085072590114],[-118.19107243702021,36.90117490411853],[-118.1909826054918,36.90117490411853],[-118.1909826054918,36.90135456717535],[-118.19089277396338,36.90135456717535],[-118.19089277396338,36.90144439870377],[-118.19080294243497,36.90144439870377],[-118.19080294243497,36.90153423023217],[-118.19071311090656,36.90153423023217],[-118.19071311090656,36.901713893289],[-118.19053344784973,36.901713893289],[-118.19053344784973,36.90216305093106],[-118.19071311090656,36.90216305093106],[-118.19071311090656,36.90225288245947],[-118.19089277396338,36.90225288245947],[-118.19089277396338,36.902342713987885],[-118.1909826054918,36.902342713987885],[-118.1909826054918,36.9024325455163],[-118.19116226854862,36.9024325455163],[-118.19116226854862,36.902522377044704],[-118.19125210007702,36.902522377044704],[-118.19125210007702,36.90261220857312],[-118.19134193160544,36.90261220857312],[-118.19134193160544,36.90288170315836],[-118.19125210007702,36.90288170315836],[-118.19125210007702,36.90306136621518],[-118.19116226854862,36.90306136621518],[-118.19116226854862,36.903330860800416],[-118.19107243702021,36.903330860800416],[-118.19107243702021,36.903510523857236],[-118.19089277396338,36.903510523857236],[-118.19089277396338,36.903780018442475],[-118.19080294243497,36.903780018442475],[-118.19080294243497,36.90386984997089],[-118.1903537847929,36.90386984997089],[-118.1903537847929,36.90360035538565],[-118.19026395326449,36.90360035538565],[-118.19026395326449,36.903241029272],[-118.19017412173609,36.903241029272],[-118.19017412173609,36.90315119774359],[-118.19026395326449,36.90315119774359],[-118.19026395326449,36.90306136621518],[-118.19017412173609,36.90306136621518],[-118.19017412173609,36.90270204010153],[-118.18999445867927,36.90270204010153],[-118.18999445867927,36.90261220857312],[-118.18990462715085,36.90261220857312],[-118.18990462715085,36.9024325455163],[-118.18981479562244,36.9024325455163],[-118.18981479562244,36.902342713987885],[-118.18963513256561,36.902342713987885],[-118.18963513256561,36.902073219402645],[-118.18945546950879,36.902073219402645],[-118.18945546950879,36.90198338787423],[-118.18936563798037,36.90198338787423],[-118.18936563798037,36.901893556345826],[-118.18918597492356,36.901893556345826],[-118.18918597492356,36.901713893289],[-118.18909614339515,36.901713893289],[-118.18909614339515,36.901624061760586],[-118.18918597492356,36.901624061760586],[-118.18918597492356,36.90135456717535],[-118.18936563798037,36.90135456717535],[-118.18936563798037,36.90126473564694],[-118.18945546950879,36.90126473564694],[-118.18945546950879,36.90117490411853],[-118.18963513256561,36.90117490411853],[-118.18963513256561,36.901085072590114],[-118.18972496409403,36.901085072590114],[-118.18972496409403,36.9009952410617],[-118.18990462715085,36.9009952410617],[-118.18990462715085,36.90081557800488],[-118.18999445867927,36.90081557800488],[-118.18999445867927,36.90072574647647],[-118.19017412173609,36.90072574647647],[-118.19017412173609,36.90054608341964],[-118.1903537847929,36.90054608341964],[-118.1903537847929,36.900456251891235],[-118.19044361632132,36.900456251891235],[-118.19044361632132,36.90009692577758],[-118.1903537847929,36.90009692577758],[-118.1903537847929,36.90027658883441],[-118.19017412173609,36.90027658883441],[-118.19017412173609,36.90036642036282],[-118.19008429020768,36.90036642036282],[-118.19008429020768,36.900456251891235],[-118.1895453010372,36.900456251891235],[-118.1895453010372,36.90036642036282],[-118.18909614339515,36.90036642036282],[-118.18909614339515,36.900186757305995],[-118.18918597492356,36.900186757305995],[-118.18918597492356,36.90000709424917],[-118.18909614339515,36.90000709424917],[-118.18909614339515,36.900186757305995],[-118.18882664880991,36.900186757305995],[-118.18882664880991,36.90027658883441],[-118.18864698575308,36.90027658883441],[-118.18864698575308,36.90036642036282],[-118.18855715422467,36.90036642036282],[-118.18855715422467,36.90072574647647],[-118.18828765963943,36.90072574647647],[-118.18828765963943,36.90081557800488],[-118.18792833352579,36.90081557800488],[-118.18792833352579,36.900635914948055],[-118.18783850199738,36.900635914948055],[-118.18783850199738,36.90054608341964],[-118.18792833352579,36.90054608341964],[-118.18792833352579,36.900456251891235],[-118.18783850199738,36.900456251891235],[-118.18783850199738,36.90036642036282],[-118.18747917588372,36.90036642036282],[-118.18747917588372,36.90072574647647],[-118.18774867046896,36.90072574647647],[-118.18774867046896,36.90081557800488],[-118.18783850199738,36.90081557800488],[-118.18783850199738,36.901085072590114],[-118.18792833352579,36.901085072590114],[-118.18792833352579,36.90117490411853],[-118.18810799658262,36.90117490411853],[-118.18810799658262,36.90135456717535],[-118.18819782811103,36.90135456717535],[-118.18819782811103,36.90144439870377],[-118.18864698575308,36.90144439870377],[-118.18864698575308,36.901624061760586],[-118.1887368172815,36.901624061760586],[-118.1887368172815,36.901713893289],[-118.18864698575308,36.901713893289],[-118.18864698575308,36.90180372481741],[-118.18828765963943,36.90180372481741],[-118.18828765963943,36.90198338787423],[-118.18846732269625,36.90198338787423],[-118.18846732269625,36.90216305093106],[-118.18855715422467,36.90216305093106],[-118.18855715422467,36.902342713987885],[-118.18864698575308,36.902342713987885],[-118.18864698575308,36.90261220857312],[-118.18882664880991,36.90261220857312],[-118.18882664880991,36.902791871629944],[-118.18891648033832,36.902791871629944],[-118.18891648033832,36.90297153468676],[-118.18900631186673,36.90297153468676],[-118.18900631186673,36.903330860800416],[-118.18909614339515,36.903330860800416],[-118.18909614339515,36.903959681499295],[-118.18927580645196,36.903959681499295],[-118.18927580645196,36.90440883914136],[-118.18936563798037,36.90440883914136],[-118.18936563798037,36.90449867066977],[-118.18963513256561,36.90449867066977],[-118.18963513256561,36.90458850219818],[-118.18936563798037,36.90458850219818],[-118.18936563798037,36.90476816525501],[-118.18963513256561,36.90476816525501],[-118.18963513256561,36.904947828311826],[-118.18972496409403,36.904947828311826],[-118.18972496409403,36.90503765984024],[-118.18981479562244,36.90503765984024],[-118.18981479562244,36.90530715442548],[-118.18990462715085,36.90530715442548],[-118.18990462715085,36.90539698595389],[-118.19008429020768,36.90539698595389],[-118.19008429020768,36.90530715442548],[-118.19017412173609,36.90530715442548],[-118.19017412173609,36.904947828311826],[-118.19026395326449,36.904947828311826],[-118.19026395326449,36.904678333726594],[-118.1903537847929,36.904678333726594],[-118.1903537847929,36.90440883914136],[-118.19062327937814,36.90440883914136],[-118.19062327937814,36.904678333726594],[-118.19071311090656,36.904678333726594],[-118.19071311090656,36.90503765984024],[-118.19080294243497,36.90503765984024],[-118.19080294243497,36.90530715442548],[-118.19107243702021,36.90530715442548],[-118.19107243702021,36.90512749136865],[-118.19116226854862,36.90512749136865],[-118.19116226854862,36.90503765984024],[-118.19125210007702,36.90503765984024],[-118.19125210007702,36.904947828311826],[-118.19152159466226,36.904947828311826],[-118.19152159466226,36.90503765984024],[-118.19161142619068,36.90503765984024],[-118.19161142619068,36.90512749136865],[-118.19170125771909,36.90512749136865],[-118.19170125771909,36.90530715442548],[-118.19188092077592,36.90530715442548],[-118.19188092077592,36.90539698595389],[-118.19170125771909,36.90539698595389],[-118.19170125771909,36.90557664901071],[-118.1917910892475,36.90557664901071],[-118.1917910892475,36.905666480539125],[-118.19161142619068,36.905666480539125],[-118.19161142619068,36.90584614359595],[-118.19197075230433,36.90584614359595],[-118.19197075230433,36.9062054697096],[-118.19206058383274,36.9062054697096],[-118.19206058383274,36.90629530123801],[-118.19197075230433,36.90629530123801],[-118.19197075230433,36.90647496429483],[-118.19206058383274,36.90647496429483],[-118.19206058383274,36.90656479582324],[-118.19224024688955,36.90656479582324],[-118.19224024688955,36.906385132766424],[-118.19233007841797,36.906385132766424],[-118.19233007841797,36.9062054697096],[-118.1925097414748,36.9062054697096],[-118.1925097414748,36.90629530123801],[-118.19277923606003,36.90629530123801],[-118.19277923606003,36.90656479582324],[-118.19286906758845,36.90656479582324],[-118.19286906758845,36.90692412193689],[-118.19313856217369,36.90692412193689],[-118.19313856217369,36.907103784993716],[-118.19286906758845,36.907103784993716],[-118.19286906758845,36.90728344805054],[-118.19313856217369,36.90728344805054],[-118.19313856217369,36.907103784993716],[-118.1933182252305,36.907103784993716],[-118.1933182252305,36.90719361652213],[-118.19349788828733,36.90719361652213],[-118.19349788828733,36.907103784993716],[-118.19367755134415,36.907103784993716],[-118.19367755134415,36.90719361652213],[-118.19358771981574,36.90719361652213],[-118.19358771981574,36.907373279578955],[-118.19349788828733,36.907373279578955],[-118.19349788828733,36.90746311110736],[-118.1933182252305,36.90746311110736],[-118.1933182252305,36.9077326056926],[-118.19349788828733,36.9077326056926],[-118.19349788828733,36.907822437221014],[-118.19358771981574,36.907822437221014],[-118.19358771981574,36.90791226874942],[-118.19394704592939,36.90791226874942],[-118.19394704592939,36.908002100277834],[-118.1940368774578,36.908002100277834]],[[-118.19071311090656,36.90458850219818],[-118.1909826054918,36.90458850219818],[-118.1909826054918,36.90440883914136],[-118.19071311090656,36.90440883914136],[-118.19071311090656,36.90458850219818]],[[-118.19233007841797,36.90593597512436],[-118.19241990994638,36.90593597512436],[-118.19241990994638,36.90584614359595],[-118.1925097414748,36.90584614359595],[-118.1925097414748,36.90575631206754],[-118.19241990994638,36.90575631206754],[-118.19241990994638,36.905666480539125],[-118.19233007841797,36.905666480539125],[-118.19233007841797,36.90593597512436]]]},"id":"-1315730+410857","properties":{"count":1599,"label":1}},{"type":"Feature","geometry":{"geodesic":false,"type":"Polygon","coordinates":[[[-118.1940368774578,36.90836142639149],[-118.1940368774578,36.90809193180625],[-118.19367755134415,36.90809193180625],[-118.19367755134415,36.90818176333466],[-118.19376738287257,36.90818176333466],[-118.19376738287257,36.90827159486307],[-118.19394704592939,36.90827159486307],[-118.19394704592939,36.90836142639149],[-118.1940368774578,36.90836142639149]]]},"id":"-1315730+410861","properties":{"count":8,"label":1}},{"type":"Feature","geometry":{"geodesic":false,"type":"Polygon","coordinates":[[[-118.19412670898622,36.90216305093106],[-118.1940368774578,36.90216305093106],[-118.1940368774578,36.90225288245947],[-118.19412670898622,36.90225288245947],[-118.19412670898622,36.90216305093106]]]},"id":"-1315731+410793","properties":{"count":1,"label":1}},{"type":"Feature","geometry":{"geodesic":false,"type":"Polygon","coordinates":[[[-118.19457586662827,36.90728344805054],[-118.19448603509986,36.90728344805054],[-118.19448603509986,36.907373279578955],[-118.19457586662827,36.907373279578955],[-118.19457586662827,36.90728344805054]]]},"id":"-1315736+410850","properties":{"count":1,"label":1}},{"type":"Feature","geometry":{"geodesic":false,"type":"Polygon","coordinates":[[[-118.19592333955445,36.90764277416419],[-118.19592333955445,36.907552942635775],[-118.19601317108287,36.907552942635775],[-118.19601317108287,36.90728344805054],[-118.19619283413968,36.90728344805054],[-118.19619283413968,36.90719361652213],[-118.1962826656681,36.90719361652213],[-118.1962826656681,36.9070139534653],[-118.1963724971965,36.9070139534653],[-118.1963724971965,36.90692412193689],[-118.1962826656681,36.90692412193689],[-118.1962826656681,36.90683429040848],[-118.19610300261128,36.90683429040848],[-118.19610300261128,36.90674445888007],[-118.19592333955445,36.90674445888007],[-118.19592333955445,36.90665462735166],[-118.19583350802604,36.90665462735166],[-118.19583350802604,36.90674445888007],[-118.19565384496921,36.90674445888007],[-118.19565384496921,36.90683429040848],[-118.1955640134408,36.90683429040848],[-118.1955640134408,36.9070139534653],[-118.19565384496921,36.9070139534653],[-118.19565384496921,36.907103784993716],[-118.19583350802604,36.907103784993716],[-118.19583350802604,36.90728344805054],[-118.19592333955445,36.90728344805054],[-118.19592333955445,36.90746311110736],[-118.19583350802604,36.90746311110736],[-118.19583350802604,36.907552942635775],[-118.19574367649763,36.907552942635775],[-118.19574367649763,36.90746311110736],[-118.19547418191239,36.90746311110736],[-118.19547418191239,36.907552942635775],[-118.1955640134408,36.907552942635775],[-118.1955640134408,36.90764277416419],[-118.19592333955445,36.90764277416419]]]},"id":"-1315748+410853","properties":{"count":50,"label":1}},{"type":"Feature","geometry":{"geodesic":false,"type":"Polygon","coordinates":[[[-118.19727081248062,36.90791226874942],[-118.19709114942381,36.90791226874942],[-118.19709114942381,36.908002100277834],[-118.19727081248062,36.908002100277834],[-118.19727081248062,36.90791226874942]]]},"id":"-1315765+410857","properties":{"count":2,"label":1}},{"type":"Feature","geometry":{"geodesic":false,"type":"Polygon","coordinates":[[[-118.19727081248062,36.916176769363325],[-118.19727081248062,36.9159971063065],[-118.19745047553745,36.9159971063065],[-118.19745047553745,36.915907274778085],[-118.19754030706586,36.915907274778085],[-118.19754030706586,36.915727611721266],[-118.19763013859428,36.915727611721266],[-118.19763013859428,36.91563778019285],[-118.19754030706586,36.91563778019285],[-118.19754030706586,36.915727611721266],[-118.19736064400904,36.915727611721266],[-118.19736064400904,36.91581744324967],[-118.19727081248062,36.91581744324967],[-118.19727081248062,36.9159971063065],[-118.19718098095221,36.9159971063065],[-118.19718098095221,36.91608693783491],[-118.19709114942381,36.91608693783491],[-118.19709114942381,36.916176769363325],[-118.19727081248062,36.916176769363325]]]},"id":"-1315765+410948","properties":{"count":11,"label":1}},{"type":"Feature","geometry":{"geodesic":false,"type":"Polygon","coordinates":[[[-118.1978098016511,36.90809193180625],[-118.19754030706586,36.90809193180625],[-118.19754030706586,36.90818176333466],[-118.1978098016511,36.90818176333466],[-118.1978098016511,36.90809193180625]]]},"id":"-1315770+410859","properties":{"count":3,"label":1}},{"type":"Feature","geometry":{"geodesic":false,"type":"Polygon","coordinates":[[[-118.19825895929316,36.90827159486307],[-118.19816912776474,36.90827159486307],[-118.19816912776474,36.90845125791989],[-118.19825895929316,36.90845125791989],[-118.19825895929316,36.90827159486307]]]},"id":"-1315777+410862","properties":{"count":2,"label":1}},{"type":"Feature","geometry":{"geodesic":false,"type":"Polygon","coordinates":[[[-118.1985284538784,36.914919127965554],[-118.1985284538784,36.91482929643714],[-118.19861828540681,36.91482929643714],[-118.19861828540681,36.914739464908735],[-118.19870811693522,36.914739464908735],[-118.19870811693522,36.91464963338032],[-118.19888777999205,36.91464963338032],[-118.19888777999205,36.91455980185191],[-118.19915727457727,36.91455980185191],[-118.19915727457727,36.914469970323495],[-118.1993369376341,36.914469970323495],[-118.1993369376341,36.91438013879508],[-118.19951660069093,36.91438013879508],[-118.19951660069093,36.914290307266675],[-118.19960643221934,36.914290307266675],[-118.19960643221934,36.91420047573826],[-118.19969626374775,36.91420047573826],[-118.19969626374775,36.91411064420985],[-118.19951660069093,36.91411064420985],[-118.19951660069093,36.91420047573826],[-118.19942676916251,36.91420047573826],[-118.19942676916251,36.914290307266675],[-118.19906744304888,36.914290307266675],[-118.19906744304888,36.91438013879508],[-118.19897761152046,36.91438013879508],[-118.19897761152046,36.914469970323495],[-118.19888777999205,36.914469970323495],[-118.19888777999205,36.91455980185191],[-118.19861828540681,36.91455980185191],[-118.19861828540681,36.91464963338032],[-118.1985284538784,36.91464963338032],[-118.1985284538784,36.914739464908735],[-118.19843862234998,36.914739464908735],[-118.19843862234998,36.914919127965554],[-118.1985284538784,36.914919127965554]]]},"id":"-1315780+410934","properties":{"count":24,"label":1}},{"type":"Feature","geometry":{"geodesic":false,"type":"Polygon","coordinates":[[[-118.19915727457727,36.91123603530067],[-118.19915727457727,36.91096654071543],[-118.19888777999205,36.91096654071543],[-118.19888777999205,36.91105637224384],[-118.19870811693522,36.91105637224384],[-118.19870811693522,36.911146203772255],[-118.19879794846364,36.911146203772255],[-118.19879794846364,36.91123603530067],[-118.19915727457727,36.91123603530067]]]},"id":"-1315784+410893","properties":{"count":12,"label":1}},{"type":"Feature","geometry":{"geodesic":false,"type":"Polygon","coordinates":[[[-118.20041491597505,36.9137513180962],[-118.20032508444663,36.9137513180962],[-118.20032508444663,36.91384114962461],[-118.20041491597505,36.91384114962461],[-118.20041491597505,36.9137513180962]]]},"id":"-1315801+410922","properties":{"count":1,"label":1}},{"type":"Feature","geometry":{"geodesic":false,"type":"Polygon","coordinates":[[[-118.20059457903187,36.86838639624816],[-118.20059457903187,36.868296564719756],[-118.20095390514552,36.868296564719756],[-118.20095390514552,36.86784740707769],[-118.20104373667394,36.86784740707769],[-118.20104373667394,36.86757791249246],[-118.20095390514552,36.86757791249246],[-118.20095390514552,36.8671287548504],[-118.2007742420887,36.8671287548504],[-118.2007742420887,36.86694909179357],[-118.20059457903187,36.86694909179357],[-118.20059457903187,36.86685926026516],[-118.20023525291822,36.86685926026516],[-118.20023525291822,36.86676942873675],[-118.2001454213898,36.86676942873675],[-118.2001454213898,36.86685926026516],[-118.19978609527617,36.86685926026516],[-118.19978609527617,36.86676942873675],[-118.19951660069093,36.86676942873675],[-118.19951660069093,36.86667959720834],[-118.19942676916251,36.86667959720834],[-118.19942676916251,36.866589765679926],[-118.19924710610569,36.866589765679926],[-118.19924710610569,36.86649993415151],[-118.19906744304888,36.86649993415151],[-118.19906744304888,36.8664101026231],[-118.19897761152046,36.8664101026231],[-118.19897761152046,36.86623043956628],[-118.19906744304888,36.86623043956628],[-118.19906744304888,36.86551178733898],[-118.19897761152046,36.86551178733898],[-118.19897761152046,36.86542195581057],[-118.19888777999205,36.86542195581057],[-118.19888777999205,36.86533212428216],[-118.19870811693522,36.86533212428216],[-118.19870811693522,36.86524229275375],[-118.19861828540681,36.86524229275375],[-118.19861828540681,36.86506262969692],[-118.1985284538784,36.86506262969692],[-118.1985284538784,36.86497279816851],[-118.19825895929316,36.86497279816851],[-118.19825895929316,36.86506262969692],[-118.19816912776474,36.86506262969692],[-118.19816912776474,36.865152461225335],[-118.19807929623634,36.865152461225335],[-118.19807929623634,36.86533212428216],[-118.19798946470793,36.86533212428216],[-118.19798946470793,36.86542195581057],[-118.1978098016511,36.86542195581057],[-118.1978098016511,36.86551178733898],[-118.19789963317952,36.86551178733898],[-118.19789963317952,36.86596094498104],[-118.19798946470793,36.86596094498104],[-118.19798946470793,36.866050776509454],[-118.19807929623634,36.866050776509454],[-118.19807929623634,36.86623043956628],[-118.19816912776474,36.86623043956628],[-118.19816912776474,36.8664101026231],[-118.19834879082157,36.8664101026231],[-118.19834879082157,36.86649993415151],[-118.19843862234998,36.86649993415151],[-118.19843862234998,36.86676942873675],[-118.19816912776474,36.86676942873675],[-118.19816912776474,36.86685926026516],[-118.19807929623634,36.86685926026516],[-118.19807929623634,36.867488080964044],[-118.19825895929316,36.867488080964044],[-118.19825895929316,36.86757791249246],[-118.19834879082157,36.86757791249246],[-118.19834879082157,36.86784740707769],[-118.19843862234998,36.86784740707769],[-118.19843862234998,36.8679372386061],[-118.19870811693522,36.8679372386061],[-118.19870811693522,36.867757575549284],[-118.19879794846364,36.867757575549284],[-118.19879794846364,36.86766774402087],[-118.19888777999205,36.86766774402087],[-118.19888777999205,36.867488080964044],[-118.19897761152046,36.867488080964044],[-118.19897761152046,36.867308417907225],[-118.19888777999205,36.867308417907225],[-118.19888777999205,36.86721858637881],[-118.19879794846364,36.86721858637881],[-118.19879794846364,36.8671287548504],[-118.19870811693522,36.8671287548504],[-118.19870811693522,36.867038923321985],[-118.1985284538784,36.867038923321985],[-118.1985284538784,36.86667959720834],[-118.19879794846364,36.86667959720834],[-118.19879794846364,36.866589765679926],[-118.19897761152046,36.866589765679926],[-118.19897761152046,36.86667959720834],[-118.19924710610569,36.86667959720834],[-118.19924710610569,36.86685926026516],[-118.1993369376341,36.86685926026516],[-118.1993369376341,36.867038923321985],[-118.19942676916251,36.867038923321985],[-118.19942676916251,36.8671287548504],[-118.19960643221934,36.8671287548504],[-118.19960643221934,36.867038923321985],[-118.19978609527617,36.867038923321985],[-118.19978609527617,36.8671287548504],[-118.2001454213898,36.8671287548504],[-118.2001454213898,36.86721858637881],[-118.20023525291822,36.86721858637881],[-118.20023525291822,36.8671287548504],[-118.20032508444663,36.8671287548504],[-118.20032508444663,36.86721858637881],[-118.20050474750346,36.86721858637881],[-118.20050474750346,36.867308417907225],[-118.20059457903187,36.867308417907225],[-118.20059457903187,36.868296564719756],[-118.20050474750346,36.868296564719756],[-118.20050474750346,36.86838639624816],[-118.20059457903187,36.86838639624816]]]},"id":"-1315803+410416","properties":{"count":385,"label":1}},{"type":"Feature","geometry":{"geodesic":false,"type":"Polygon","coordinates":[[[-118.20086407361711,36.869374543060694],[-118.20086407361711,36.868745722361815],[-118.20095390514552,36.868745722361815],[-118.20095390514552,36.8686558908334],[-118.2007742420887,36.8686558908334],[-118.2007742420887,36.868745722361815],[-118.20059457903187,36.868745722361815],[-118.20059457903187,36.868925385418635],[-118.20068441056029,36.868925385418635],[-118.20068441056029,36.869374543060694],[-118.20086407361711,36.869374543060694]]]},"id":"-1315805+410427","properties":{"count":18,"label":1}},{"type":"Feature","geometry":{"geodesic":false,"type":"Polygon","coordinates":[[[-118.20131323125916,36.913302160454144],[-118.20122339973075,36.913302160454144],[-118.20122339973075,36.91339199198255],[-118.20131323125916,36.91339199198255],[-118.20131323125916,36.913302160454144]]]},"id":"-1315811+410917","properties":{"count":1,"label":1}},{"type":"Feature","geometry":{"geodesic":false,"type":"Polygon","coordinates":[[[-118.20149289431599,36.868476227776576],[-118.20140306278758,36.868476227776576],[-118.20140306278758,36.86856605930499],[-118.20149289431599,36.86856605930499],[-118.20149289431599,36.868476227776576]]]},"id":"-1315813+410418","properties":{"count":1,"label":1}},{"type":"Feature","geometry":{"geodesic":false,"type":"Polygon","coordinates":[[[-118.20176238890123,36.913032665868904],[-118.20167255737282,36.913032665868904],[-118.20167255737282,36.91312249739732],[-118.20176238890123,36.91312249739732],[-118.20176238890123,36.913032665868904]]]},"id":"-1315816+410914","properties":{"count":1,"label":1}},{"type":"Feature","geometry":{"geodesic":false,"type":"Polygon","coordinates":[[[-118.2023013780717,36.91276317128367],[-118.20221154654328,36.91276317128367],[-118.20221154654328,36.91285300281208],[-118.2023013780717,36.91285300281208],[-118.2023013780717,36.91276317128367]]]},"id":"-1315822+410911","properties":{"count":1,"label":1}},{"type":"Feature","geometry":{"geodesic":false,"type":"Polygon","coordinates":[[[-118.20275053571376,36.86946437458911],[-118.20275053571376,36.869374543060694],[-118.20266070418535,36.869374543060694],[-118.20266070418535,36.86901521694705],[-118.20248104112852,36.86901521694705],[-118.20248104112852,36.868925385418635],[-118.2023013780717,36.868925385418635],[-118.2023013780717,36.86901521694705],[-118.20239120960011,36.86901521694705],[-118.20239120960011,36.86928471153229],[-118.2023013780717,36.86928471153229],[-118.2023013780717,36.869374543060694],[-118.20248104112852,36.869374543060694],[-118.20248104112852,36.86946437458911],[-118.20275053571376,36.86946437458911]]]},"id":"-1315825+410428","properties":{"count":18,"label":1}},{"type":"Feature","geometry":{"geodesic":false,"type":"Polygon","coordinates":[[[-118.20275053571376,36.852755710304486],[-118.20266070418535,36.852755710304486],[-118.20266070418535,36.8528455418329],[-118.20275053571376,36.8528455418329],[-118.20275053571376,36.852755710304486]]]},"id":"-1315827+410243","properties":{"count":1,"label":1}},{"type":"Feature","geometry":{"geodesic":false,"type":"Polygon","coordinates":[[[-118.203020030299,36.85311503641813],[-118.203020030299,36.85302520488972],[-118.20293019877059,36.85302520488972],[-118.20293019877059,36.85293537336131],[-118.20284036724217,36.85293537336131],[-118.20284036724217,36.85302520488972],[-118.20293019877059,36.85302520488972],[-118.20293019877059,36.85311503641813],[-118.203020030299,36.85311503641813]]]},"id":"-1315830+410246","properties":{"count":2,"label":1}},{"type":"Feature","geometry":{"geodesic":false,"type":"Polygon","coordinates":[[[-118.20355901946947,36.853654025588604],[-118.20346918794105,36.853654025588604],[-118.20346918794105,36.85374385711702],[-118.20355901946947,36.85374385711702],[-118.20355901946947,36.853654025588604]]]},"id":"-1315836+410253","properties":{"count":1,"label":1}},{"type":"Feature","geometry":{"geodesic":false,"type":"Polygon","coordinates":[[[-118.20364885099788,36.86946437458911],[-118.20364885099788,36.869374543060694],[-118.20373868252629,36.869374543060694],[-118.20373868252629,36.86928471153229],[-118.20400817711153,36.86928471153229],[-118.20400817711153,36.869194880003874],[-118.2038285140547,36.869194880003874],[-118.2038285140547,36.86910504847546],[-118.20373868252629,36.86910504847546],[-118.20373868252629,36.869194880003874],[-118.20364885099788,36.869194880003874],[-118.20364885099788,36.86928471153229],[-118.20337935641264,36.86928471153229],[-118.20337935641264,36.869374543060694],[-118.20355901946947,36.869374543060694],[-118.20355901946947,36.86946437458911],[-118.20364885099788,36.86946437458911]]]},"id":"-1315837+410428","properties":{"count":10,"label":1}},{"type":"Feature","geometry":{"geodesic":false,"type":"Polygon","coordinates":[[[-118.20445733475358,36.869644037645934],[-118.20445733475358,36.869374543060694],[-118.20427767169676,36.869374543060694],[-118.20427767169676,36.86928471153229],[-118.20418784016834,36.86928471153229],[-118.20418784016834,36.869194880003874],[-118.20409800863995,36.869194880003874],[-118.20409800863995,36.86928471153229],[-118.20418784016834,36.86928471153229],[-118.20418784016834,36.86946437458911],[-118.20427767169676,36.86946437458911],[-118.20427767169676,36.869644037645934],[-118.20445733475358,36.869644037645934]]]},"id":"-1315845+410430","properties":{"count":9,"label":1}},{"type":"Feature","geometry":{"geodesic":false,"type":"Polygon","coordinates":[[[-118.204547166282,36.86973386917435],[-118.20445733475358,36.86973386917435],[-118.20445733475358,36.86982370070275],[-118.204547166282,36.86982370070275],[-118.204547166282,36.86973386917435]]]},"id":"-1315847+410432","properties":{"count":1,"label":1}},{"type":"Feature","geometry":{"geodesic":false,"type":"Polygon","coordinates":[[[-118.20463699781041,36.8709016790437],[-118.20463699781041,36.870811847515284],[-118.20490649239565,36.870811847515284],[-118.20490649239565,36.87072201598688],[-118.20418784016834,36.87072201598688],[-118.20418784016834,36.870811847515284],[-118.20445733475358,36.870811847515284],[-118.20445733475358,36.8709016790437],[-118.20463699781041,36.8709016790437]]]},"id":"-1315847+410444","properties":{"count":10,"label":1}},{"type":"Feature","geometry":{"geodesic":false,"type":"Polygon","coordinates":[[[-118.20499632392406,36.870632184458465],[-118.20499632392406,36.87045252140164],[-118.20481666086724,36.87045252140164],[-118.20481666086724,36.870362689873225],[-118.20490649239565,36.870362689873225],[-118.20490649239565,36.87027285834482],[-118.20463699781041,36.87027285834482],[-118.20463699781041,36.870362689873225],[-118.204547166282,36.870362689873225],[-118.204547166282,36.87045252140164],[-118.20463699781041,36.87045252140164],[-118.20463699781041,36.870632184458465],[-118.20499632392406,36.870632184458465]]]},"id":"-1315849+410441","properties":{"count":14,"label":1}},{"type":"Feature","geometry":{"geodesic":false,"type":"Polygon","coordinates":[[[-118.20481666086724,36.854642172401135],[-118.20472682933882,36.854642172401135],[-118.20472682933882,36.85473200392955],[-118.20481666086724,36.85473200392955],[-118.20481666086724,36.854642172401135]]]},"id":"-1315850+410264","properties":{"count":1,"label":1}},{"type":"Feature","geometry":{"geodesic":false,"type":"Polygon","coordinates":[[[-118.20688278602071,36.87072201598688],[-118.20688278602071,36.870632184458465],[-118.20706244907754,36.870632184458465],[-118.20706244907754,36.870362689873225],[-118.20697261754913,36.870362689873225],[-118.20697261754913,36.87027285834482],[-118.20688278602071,36.87027285834482],[-118.20688278602071,36.870183026816406],[-118.2067929544923,36.870183026816406],[-118.2067929544923,36.87009319528799],[-118.20652345990706,36.87009319528799],[-118.20652345990706,36.87000336375958],[-118.20634379685023,36.87000336375958],[-118.20634379685023,36.869913532231166],[-118.20625396532182,36.869913532231166],[-118.20625396532182,36.86982370070275],[-118.20607430226501,36.86982370070275],[-118.20607430226501,36.869644037645934],[-118.2059844707366,36.869644037645934],[-118.2059844707366,36.86946437458911],[-118.20589463920818,36.86946437458911],[-118.20589463920818,36.86928471153229],[-118.20580480767977,36.86928471153229],[-118.20580480767977,36.86901521694705],[-118.2059844707366,36.86901521694705],[-118.2059844707366,36.86883555389022],[-118.20589463920818,36.86883555389022],[-118.20589463920818,36.86838639624816],[-118.20571497615136,36.86838639624816],[-118.20571497615136,36.868296564719756],[-118.20562514462294,36.868296564719756],[-118.20562514462294,36.86820673319134],[-118.20553531309453,36.86820673319134],[-118.20553531309453,36.86811690166293],[-118.20544548156612,36.86811690166293],[-118.20544548156612,36.86784740707769],[-118.20517598698088,36.86784740707769],[-118.20517598698088,36.86820673319134],[-118.20508615545248,36.86820673319134],[-118.20508615545248,36.868296564719756],[-118.20499632392406,36.868296564719756],[-118.20499632392406,36.86820673319134],[-118.20481666086724,36.86820673319134],[-118.20481666086724,36.86802707013452],[-118.20472682933882,36.86802707013452],[-118.20472682933882,36.8679372386061],[-118.20463699781041,36.8679372386061],[-118.20463699781041,36.867757575549284],[-118.20436750322517,36.867757575549284],[-118.20436750322517,36.86784740707769],[-118.20427767169676,36.86784740707769],[-118.20427767169676,36.86802707013452],[-118.20391834558312,36.86802707013452],[-118.20391834558312,36.86757791249246],[-118.20373868252629,36.86757791249246],[-118.20373868252629,36.867488080964044],[-118.20364885099788,36.867488080964044],[-118.20364885099788,36.86739824943563],[-118.20373868252629,36.86739824943563],[-118.20373868252629,36.867308417907225],[-118.20355901946947,36.867308417907225],[-118.20355901946947,36.867038923321985],[-118.20346918794105,36.867038923321985],[-118.20346918794105,36.86694909179357],[-118.20337935641264,36.86694909179357],[-118.20337935641264,36.86685926026516],[-118.20293019877059,36.86685926026516],[-118.20293019877059,36.86676942873675],[-118.20284036724217,36.86676942873675],[-118.20284036724217,36.86667959720834],[-118.20266070418535,36.86667959720834],[-118.20266070418535,36.866589765679926],[-118.20203188348647,36.866589765679926],[-118.20203188348647,36.86649993415151],[-118.20194205195806,36.86649993415151],[-118.20194205195806,36.8664101026231],[-118.20176238890123,36.8664101026231],[-118.20176238890123,36.86623043956628],[-118.20167255737282,36.86623043956628],[-118.20167255737282,36.86614060803787],[-118.2015827258444,36.86614060803787],[-118.2015827258444,36.866050776509454],[-118.20131323125916,36.866050776509454],[-118.20131323125916,36.8664101026231],[-118.20122339973075,36.8664101026231],[-118.20122339973075,36.86649993415151],[-118.20131323125916,36.86649993415151],[-118.20131323125916,36.866589765679926],[-118.20149289431599,36.866589765679926],[-118.20149289431599,36.86667959720834],[-118.2015827258444,36.86667959720834],[-118.2015827258444,36.86676942873675],[-118.20194205195806,36.86676942873675],[-118.20194205195806,36.86685926026516],[-118.20203188348647,36.86685926026516],[-118.20203188348647,36.86721858637881],[-118.20212171501488,36.86721858637881],[-118.20212171501488,36.867308417907225],[-118.20203188348647,36.867308417907225],[-118.20203188348647,36.86757791249246],[-118.20212171501488,36.86757791249246],[-118.20212171501488,36.867757575549284],[-118.2023013780717,36.867757575549284],[-118.2023013780717,36.86784740707769],[-118.20248104112852,36.86784740707769],[-118.20248104112852,36.8679372386061],[-118.20257087265693,36.8679372386061],[-118.20257087265693,36.86802707013452],[-118.20275053571376,36.86802707013452],[-118.20275053571376,36.86811690166293],[-118.20284036724217,36.86811690166293],[-118.20284036724217,36.868296564719756],[-118.20293019877059,36.868296564719756],[-118.20293019877059,36.868476227776576],[-118.20319969335581,36.868476227776576],[-118.20319969335581,36.86856605930499],[-118.20328952488423,36.86856605930499],[-118.20328952488423,36.8686558908334],[-118.20337935641264,36.8686558908334],[-118.20337935641264,36.86856605930499],[-118.20346918794105,36.86856605930499],[-118.20346918794105,36.868476227776576],[-118.20391834558312,36.868476227776576],[-118.20391834558312,36.86856605930499],[-118.20418784016834,36.86856605930499],[-118.20418784016834,36.868476227776576],[-118.20436750322517,36.868476227776576],[-118.20436750322517,36.86856605930499],[-118.20472682933882,36.86856605930499],[-118.20472682933882,36.868476227776576],[-118.20481666086724,36.868476227776576],[-118.20481666086724,36.86838639624816],[-118.20499632392406,36.86838639624816],[-118.20499632392406,36.868476227776576],[-118.20544548156612,36.868476227776576],[-118.20544548156612,36.86856605930499],[-118.20553531309453,36.86856605930499],[-118.20553531309453,36.8686558908334],[-118.20562514462294,36.8686558908334],[-118.20562514462294,36.86883555389022],[-118.20553531309453,36.86883555389022],[-118.20553531309453,36.868925385418635],[-118.20517598698088,36.868925385418635],[-118.20517598698088,36.86910504847546],[-118.2053556500377,36.86910504847546],[-118.2053556500377,36.869194880003874],[-118.20544548156612,36.869194880003874],[-118.20544548156612,36.86928471153229],[-118.20553531309453,36.86928471153229],[-118.20553531309453,36.869374543060694],[-118.20562514462294,36.869374543060694],[-118.20562514462294,36.86946437458911],[-118.20580480767977,36.86946437458911],[-118.20580480767977,36.869644037645934],[-118.20589463920818,36.869644037645934],[-118.20589463920818,36.86973386917435],[-118.2059844707366,36.86973386917435],[-118.2059844707366,36.86982370070275],[-118.20607430226501,36.86982370070275],[-118.20607430226501,36.869913532231166],[-118.2059844707366,36.869913532231166],[-118.2059844707366,36.87000336375958],[-118.20607430226501,36.87000336375958],[-118.20607430226501,36.87009319528799],[-118.20625396532182,36.87009319528799],[-118.20625396532182,36.870183026816406],[-118.20634379685023,36.870183026816406],[-118.20634379685023,36.87027285834482],[-118.20643362837865,36.87027285834482],[-118.20643362837865,36.870362689873225],[-118.20661329143547,36.870362689873225],[-118.20661329143547,36.87045252140164],[-118.20670312296389,36.87045252140164],[-118.20670312296389,36.870632184458465],[-118.2067929544923,36.870632184458465],[-118.2067929544923,36.87072201598688],[-118.20688278602071,36.87072201598688]]]},"id":"-1315873+410442","properties":{"count":572,"label":1}},{"type":"Feature","geometry":{"geodesic":false,"type":"Polygon","coordinates":[[[-118.20724211213435,36.870632184458465],[-118.20715228060594,36.870632184458465],[-118.20715228060594,36.87072201598688],[-118.20724211213435,36.87072201598688],[-118.20724211213435,36.870632184458465]]]},"id":"-1315877+410442","properties":{"count":1,"label":1}},{"type":"Feature","geometry":{"geodesic":false,"type":"Polygon","coordinates":[[[-118.20778110130483,36.874405108651764],[-118.207601438248,36.874405108651764],[-118.207601438248,36.87449494018018],[-118.20778110130483,36.87449494018018],[-118.20778110130483,36.874405108651764]]]},"id":"-1315882+410484","properties":{"count":2,"label":1}},{"type":"Feature","geometry":{"geodesic":false,"type":"Polygon","coordinates":[[[-118.20787093283325,36.87593224463477],[-118.20787093283325,36.87575258157794],[-118.20778110130483,36.87575258157794],[-118.20778110130483,36.875662750049536],[-118.20769126977642,36.875662750049536],[-118.20769126977642,36.875213592407476],[-118.20751160671959,36.875213592407476],[-118.20751160671959,36.87512376087906],[-118.20742177519118,36.87512376087906],[-118.20742177519118,36.87485426629382],[-118.20733194366277,36.87485426629382],[-118.20733194366277,36.87458477170859],[-118.20742177519118,36.87458477170859],[-118.20742177519118,36.874405108651764],[-118.20733194366277,36.874405108651764],[-118.20733194366277,36.87386611948129],[-118.20715228060594,36.87386611948129],[-118.20715228060594,36.87341696183923],[-118.20706244907754,36.87341696183923],[-118.20706244907754,36.87323729878241],[-118.20670312296389,36.87323729878241],[-118.20670312296389,36.873147467254],[-118.20652345990706,36.873147467254],[-118.20652345990706,36.872967804197174],[-118.20634379685023,36.872967804197174],[-118.20634379685023,36.87278814114035],[-118.20625396532182,36.87278814114035],[-118.20625396532182,36.8724288150267],[-118.20634379685023,36.8724288150267],[-118.20634379685023,36.87233898349829],[-118.20652345990706,36.87233898349829],[-118.20652345990706,36.87188982585623],[-118.20634379685023,36.87188982585623],[-118.20634379685023,36.87171016279941],[-118.20643362837865,36.87171016279941],[-118.20643362837865,36.871620331271],[-118.20661329143547,36.871620331271],[-118.20661329143547,36.87144066821417],[-118.20670312296389,36.87144066821417],[-118.20670312296389,36.87117117362894],[-118.2067929544923,36.87117117362894],[-118.2067929544923,36.871081342100524],[-118.20688278602071,36.871081342100524],[-118.20688278602071,36.87099151057211],[-118.20706244907754,36.87099151057211],[-118.20706244907754,36.8709016790437],[-118.2067929544923,36.8709016790437],[-118.2067929544923,36.87099151057211],[-118.20670312296389,36.87099151057211],[-118.20670312296389,36.87117117362894],[-118.20661329143547,36.87117117362894],[-118.20661329143547,36.87126100515735],[-118.20634379685023,36.87126100515735],[-118.20634379685023,36.87117117362894],[-118.20625396532182,36.87117117362894],[-118.20625396532182,36.871081342100524],[-118.20634379685023,36.871081342100524],[-118.20634379685023,36.87099151057211],[-118.20625396532182,36.87099151057211],[-118.20625396532182,36.8709016790437],[-118.20616413379341,36.8709016790437],[-118.20616413379341,36.870811847515284],[-118.2059844707366,36.870811847515284],[-118.2059844707366,36.87072201598688],[-118.20580480767977,36.87072201598688],[-118.20580480767977,36.870632184458465],[-118.20553531309453,36.870632184458465],[-118.20553531309453,36.87072201598688],[-118.20571497615136,36.87072201598688],[-118.20571497615136,36.8709016790437],[-118.20553531309453,36.8709016790437],[-118.20553531309453,36.87099151057211],[-118.20526581850929,36.87099151057211],[-118.20526581850929,36.871081342100524],[-118.2053556500377,36.871081342100524],[-118.2053556500377,36.87117117362894],[-118.20544548156612,36.87117117362894],[-118.20544548156612,36.87126100515735],[-118.20553531309453,36.87126100515735],[-118.20553531309453,36.87144066821417],[-118.20544548156612,36.87144066821417],[-118.20544548156612,36.87153049974258],[-118.2053556500377,36.87153049974258],[-118.2053556500377,36.871620331271],[-118.20526581850929,36.871620331271],[-118.20526581850929,36.87188982585623],[-118.2053556500377,36.87188982585623],[-118.2053556500377,36.872069488913056],[-118.20544548156612,36.872069488913056],[-118.20544548156612,36.87215932044147],[-118.20562514462294,36.87215932044147],[-118.20562514462294,36.87224915196988],[-118.20571497615136,36.87224915196988],[-118.20571497615136,36.8724288150267],[-118.20580480767977,36.8724288150267],[-118.20580480767977,36.87269830961194],[-118.20589463920818,36.87269830961194],[-118.20589463920818,36.873147467254],[-118.2059844707366,36.873147467254],[-118.2059844707366,36.87332713031082],[-118.20580480767977,36.87332713031082],[-118.20580480767977,36.87323729878241],[-118.20571497615136,36.87323729878241],[-118.20571497615136,36.873147467254],[-118.20562514462294,36.873147467254],[-118.20562514462294,36.87323729878241],[-118.20571497615136,36.87323729878241],[-118.20571497615136,36.87341696183923],[-118.20580480767977,36.87341696183923],[-118.20580480767977,36.873506793367646],[-118.20607430226501,36.873506793367646],[-118.20607430226501,36.87359662489606],[-118.20616413379341,36.87359662489606],[-118.20616413379341,36.87368645642447],[-118.20661329143547,36.87368645642447],[-118.20661329143547,36.87377628795288],[-118.20670312296389,36.87377628795288],[-118.20670312296389,36.87413561406653],[-118.20688278602071,36.87413561406653],[-118.20688278602071,36.87449494018018],[-118.20697261754913,36.87449494018018],[-118.20697261754913,36.87476443476541],[-118.20706244907754,36.87476443476541],[-118.20706244907754,36.87494409782224],[-118.20724211213435,36.87494409782224],[-118.20724211213435,36.87503392935065],[-118.20733194366277,36.87503392935065],[-118.20733194366277,36.875213592407476],[-118.20742177519118,36.875213592407476],[-118.20742177519118,36.875393255464296],[-118.20751160671959,36.875393255464296],[-118.20751160671959,36.875662750049536],[-118.20769126977642,36.875662750049536],[-118.20769126977642,36.87575258157794],[-118.20778110130483,36.87575258157794],[-118.20778110130483,36.87593224463477],[-118.20787093283325,36.87593224463477]]]},"id":"-1315884+410500","properties":{"count":423,"label":1}},{"type":"Feature","geometry":{"geodesic":false,"type":"Polygon","coordinates":[[[-118.20805059589007,36.87341696183923],[-118.20796076436166,36.87341696183923],[-118.20796076436166,36.87368645642447],[-118.20805059589007,36.87368645642447],[-118.20805059589007,36.87341696183923]]]},"id":"-1315886+410475","properties":{"count":3,"label":1}},{"type":"Feature","geometry":{"geodesic":false,"type":"Polygon","coordinates":[[[-118.20823025894688,36.87413561406653],[-118.20805059589007,36.87413561406653],[-118.20805059589007,36.874225445594945],[-118.20823025894688,36.874225445594945],[-118.20823025894688,36.87413561406653]]]},"id":"-1315887+410481","properties":{"count":2,"label":1}},{"type":"Feature","geometry":{"geodesic":false,"type":"Polygon","coordinates":[[[-118.20823025894688,36.87638140227683],[-118.20823025894688,36.87620173922001],[-118.20805059589007,36.87620173922001],[-118.20805059589007,36.876111907691595],[-118.20796076436166,36.876111907691595],[-118.20796076436166,36.87602207616318],[-118.20787093283325,36.87602207616318],[-118.20787093283325,36.876111907691595],[-118.20778110130483,36.876111907691595],[-118.20778110130483,36.876291570748414],[-118.20805059589007,36.876291570748414],[-118.20805059589007,36.87638140227683],[-118.20823025894688,36.87638140227683]]]},"id":"-1315887+410505","properties":{"count":11,"label":1}},{"type":"Feature","geometry":{"geodesic":false,"type":"Polygon","coordinates":[[[-118.2083200904753,36.856528634497785],[-118.20823025894688,36.856528634497785],[-118.20823025894688,36.8566184660262],[-118.2083200904753,36.8566184660262],[-118.2083200904753,36.856528634497785]]]},"id":"-1315889+410285","properties":{"count":1,"label":1}},{"type":"Feature","geometry":{"geodesic":false,"type":"Polygon","coordinates":[[[-118.20867941658895,36.85670829755461],[-118.20858958506054,36.85670829755461],[-118.20858958506054,36.856798129083025],[-118.20867941658895,36.856798129083025],[-118.20867941658895,36.85670829755461]]]},"id":"-1315893+410287","properties":{"count":1,"label":1}},{"type":"Feature","geometry":{"geodesic":false,"type":"Polygon","coordinates":[[[-118.2090387427026,36.876111907691595],[-118.2090387427026,36.875662750049536],[-118.209128574231,36.875662750049536],[-118.209128574231,36.87530342393588],[-118.20921840575942,36.87530342393588],[-118.20921840575942,36.875213592407476],[-118.209128574231,36.875213592407476],[-118.209128574231,36.87512376087906],[-118.20921840575942,36.87512376087906],[-118.20921840575942,36.87503392935065],[-118.209128574231,36.87503392935065],[-118.209128574231,36.87494409782224],[-118.20921840575942,36.87494409782224],[-118.20921840575942,36.87485426629382],[-118.20876924811736,36.87485426629382],[-118.20876924811736,36.87476443476541],[-118.20840992200371,36.87476443476541],[-118.20840992200371,36.874674603237004],[-118.2083200904753,36.874674603237004],[-118.2083200904753,36.87458477170859],[-118.20823025894688,36.87458477170859],[-118.20823025894688,36.87449494018018],[-118.20796076436166,36.87449494018018],[-118.20796076436166,36.874674603237004],[-118.20814042741847,36.874674603237004],[-118.20814042741847,36.87476443476541],[-118.2083200904753,36.87476443476541],[-118.2083200904753,36.87503392935065],[-118.20867941658895,36.87503392935065],[-118.20867941658895,36.87512376087906],[-118.20876924811736,36.87512376087906],[-118.20876924811736,36.87530342393588],[-118.20885907964578,36.87530342393588],[-118.20885907964578,36.875662750049536],[-118.20876924811736,36.875662750049536],[-118.20876924811736,36.875842413106355],[-118.20885907964578,36.875842413106355],[-118.20885907964578,36.876111907691595],[-118.2090387427026,36.876111907691595]]]},"id":"-1315896+410502","properties":{"count":73,"label":1}},{"type":"Feature","geometry":{"geodesic":false,"type":"Polygon","coordinates":[[[-118.209128574231,36.91644626394856],[-118.20894891117419,36.91644626394856],[-118.20894891117419,36.91653609547697],[-118.209128574231,36.91653609547697],[-118.209128574231,36.91644626394856]]]},"id":"-1315897+410952","properties":{"count":2,"label":1}},{"type":"Feature","geometry":{"geodesic":false,"type":"Polygon","coordinates":[[[-118.2097573949299,36.91653609547697],[-118.2097573949299,36.91644626394856],[-118.20966756340148,36.91644626394856],[-118.20966756340148,36.916356432420145],[-118.20939806881624,36.916356432420145],[-118.20939806881624,36.91626660089174],[-118.20930823728783,36.91626660089174],[-118.20930823728783,36.916356432420145],[-118.20921840575942,36.916356432420145],[-118.20921840575942,36.91644626394856],[-118.20930823728783,36.91644626394856],[-118.20930823728783,36.91653609547697],[-118.2097573949299,36.91653609547697]]]},"id":"-1315901+410952","properties":{"count":11,"label":1}},{"type":"Feature","geometry":{"geodesic":false,"type":"Polygon","coordinates":[[[-118.20957773187307,36.876561065333654],[-118.20948790034466,36.876561065333654],[-118.20948790034466,36.87665089686207],[-118.20957773187307,36.87665089686207],[-118.20957773187307,36.876561065333654]]]},"id":"-1315903+410508","properties":{"count":1,"label":1}},{"type":"Feature","geometry":{"geodesic":false,"type":"Polygon","coordinates":[[[-118.20966756340148,36.857247286725084],[-118.20957773187307,36.857247286725084],[-118.20957773187307,36.8573371182535],[-118.20966756340148,36.8573371182535],[-118.20966756340148,36.857247286725084]]]},"id":"-1315904+410293","properties":{"count":1,"label":1}},{"type":"Feature","geometry":{"geodesic":false,"type":"Polygon","coordinates":[[[-118.20984722645831,36.876830559918886],[-118.20966756340148,36.876830559918886],[-118.20966756340148,36.877100054504126],[-118.20984722645831,36.877100054504126],[-118.20984722645831,36.876830559918886]]]},"id":"-1315905+410513","properties":{"count":6,"label":1}},{"type":"Feature","geometry":{"geodesic":false,"type":"Polygon","coordinates":[[[-118.20993705798672,36.9182428945168],[-118.20966756340148,36.9182428945168],[-118.20966756340148,36.91833272604521],[-118.20993705798672,36.91833272604521],[-118.20993705798672,36.9182428945168]]]},"id":"-1315905+410972","properties":{"count":3,"label":1}},{"type":"Feature","geometry":{"geodesic":false,"type":"Polygon","coordinates":[[[-118.20993705798672,36.877549212146185],[-118.20984722645831,36.877549212146185],[-118.20984722645831,36.8776390436746],[-118.20993705798672,36.8776390436746],[-118.20993705798672,36.877549212146185]]]},"id":"-1315907+410519","properties":{"count":1,"label":1}},{"type":"Feature","geometry":{"geodesic":false,"type":"Polygon","coordinates":[[[-118.21002688951513,36.8574269497819],[-118.20993705798672,36.8574269497819],[-118.20993705798672,36.857516781310316],[-118.21002688951513,36.857516781310316],[-118.21002688951513,36.8574269497819]]]},"id":"-1315908+410295","properties":{"count":1,"label":1}},{"type":"Feature","geometry":{"geodesic":false,"type":"Polygon","coordinates":[[[-118.21011672104353,36.9167157585338],[-118.21002688951513,36.9167157585338],[-118.21002688951513,36.91689542159062],[-118.21011672104353,36.91689542159062],[-118.21011672104353,36.9167157585338]]]},"id":"-1315909+410956","properties":{"count":2,"label":1}},{"type":"Feature","geometry":{"geodesic":false,"type":"Polygon","coordinates":[[[-118.21074554174243,36.857786275895556],[-118.21065571021401,36.857786275895556],[-118.21065571021401,36.85787610742397],[-118.21074554174243,36.85787610742397],[-118.21074554174243,36.857786275895556]]]},"id":"-1315916+410299","properties":{"count":1,"label":1}},{"type":"Feature","geometry":{"geodesic":false,"type":"Polygon","coordinates":[[[-118.21370998218002,36.875842413106355],[-118.21370998218002,36.87575258157794],[-118.21397947676526,36.87575258157794],[-118.21397947676526,36.875842413106355],[-118.21406930829366,36.875842413106355],[-118.21406930829366,36.875662750049536],[-118.21415913982207,36.875662750049536],[-118.21415913982207,36.875393255464296],[-118.21442863440731,36.875393255464296],[-118.21442863440731,36.87557291852112],[-118.21451846593573,36.87557291852112],[-118.21451846593573,36.87548308699271],[-118.21487779204938,36.87548308699271],[-118.21487779204938,36.875393255464296],[-118.21496762357779,36.875393255464296],[-118.21496762357779,36.875213592407476],[-118.21505745510619,36.875213592407476],[-118.21505745510619,36.87512376087906],[-118.2151472866346,36.87512376087906],[-118.2151472866346,36.87503392935065],[-118.21541678121984,36.87503392935065],[-118.21541678121984,36.87494409782224],[-118.21550661274826,36.87494409782224],[-118.21550661274826,36.87476443476541],[-118.21541678121984,36.87476443476541],[-118.21541678121984,36.87458477170859],[-118.21523711816302,36.87458477170859],[-118.21523711816302,36.87431527712335],[-118.2151472866346,36.87431527712335],[-118.2151472866346,36.87413561406653],[-118.21505745510619,36.87413561406653],[-118.21505745510619,36.87386611948129],[-118.21496762357779,36.87386611948129],[-118.21496762357779,36.87404578253812],[-118.21478796052097,36.87404578253812],[-118.21478796052097,36.87413561406653],[-118.21460829746414,36.87413561406653],[-118.21460829746414,36.874225445594945],[-118.21451846593573,36.874225445594945],[-118.21451846593573,36.87413561406653],[-118.21415913982207,36.87413561406653],[-118.21415913982207,36.87431527712335],[-118.21406930829366,36.87431527712335],[-118.21406930829366,36.87449494018018],[-118.21388964523685,36.87449494018018],[-118.21388964523685,36.87458477170859],[-118.21335065606637,36.87458477170859],[-118.21335065606637,36.87449494018018],[-118.21299132995273,36.87449494018018],[-118.21299132995273,36.87485426629382],[-118.21317099300954,36.87485426629382],[-118.21317099300954,36.87503392935065],[-118.21326082453795,36.87503392935065],[-118.21326082453795,36.87512376087906],[-118.21335065606637,36.87512376087906],[-118.21335065606637,36.875213592407476],[-118.2135303191232,36.875213592407476],[-118.2135303191232,36.875393255464296],[-118.21335065606637,36.875393255464296],[-118.21335065606637,36.87557291852112],[-118.2135303191232,36.87557291852112],[-118.2135303191232,36.87575258157794],[-118.21362015065161,36.87575258157794],[-118.21362015065161,36.875842413106355],[-118.21370998218002,36.875842413106355]]]},"id":"-1315949+410499","properties":{"count":315,"label":1}},{"type":"Feature","geometry":{"geodesic":false,"type":"Polygon","coordinates":[[[-118.21379981370843,36.85940324340697],[-118.21370998218002,36.85940324340697],[-118.21370998218002,36.85949307493538],[-118.21379981370843,36.85949307493538],[-118.21379981370843,36.85940324340697]]]},"id":"-1315950+410317","properties":{"count":1,"label":1}},{"type":"Feature","geometry":{"geodesic":false,"type":"Polygon","coordinates":[[[-118.21397947676526,36.85949307493538],[-118.21388964523685,36.85949307493538],[-118.21388964523685,36.85958290646379],[-118.21397947676526,36.85958290646379],[-118.21397947676526,36.85949307493538]]]},"id":"-1315952+410318","properties":{"count":1,"label":1}},{"type":"Feature","geometry":{"geodesic":false,"type":"Polygon","coordinates":[[[-118.21442863440731,36.898749452851405],[-118.21442863440731,36.89847995826617],[-118.2143388028789,36.89847995826617],[-118.2143388028789,36.89865962132299],[-118.21415913982207,36.89865962132299],[-118.21415913982207,36.898749452851405],[-118.21442863440731,36.898749452851405]]]},"id":"-1315955+410754","properties":{"count":5,"label":1}},{"type":"Feature","geometry":{"geodesic":false,"type":"Polygon","coordinates":[[[-118.21523711816302,36.87701022297571],[-118.21523711816302,36.876830559918886],[-118.21496762357779,36.876830559918886],[-118.21496762357779,36.87674072839047],[-118.21487779204938,36.87674072839047],[-118.21487779204938,36.87665089686207],[-118.21496762357779,36.87665089686207],[-118.21496762357779,36.876561065333654],[-118.21505745510619,36.876561065333654],[-118.21505745510619,36.87647123380524],[-118.21496762357779,36.87647123380524],[-118.21496762357779,36.876291570748414],[-118.2151472866346,36.876291570748414],[-118.2151472866346,36.87620173922001],[-118.21505745510619,36.87620173922001],[-118.21505745510619,36.876111907691595],[-118.21496762357779,36.876111907691595],[-118.21496762357779,36.87602207616318],[-118.21451846593573,36.87602207616318],[-118.21451846593573,36.876111907691595],[-118.21415913982207,36.876111907691595],[-118.21415913982207,36.87620173922001],[-118.21424897135049,36.87620173922001],[-118.21424897135049,36.876291570748414],[-118.21451846593573,36.876291570748414],[-118.21451846593573,36.87638140227683],[-118.21460829746414,36.87638140227683],[-118.21460829746414,36.876561065333654],[-118.21478796052097,36.876561065333654],[-118.21478796052097,36.87674072839047],[-118.21487779204938,36.87674072839047],[-118.21487779204938,36.876830559918886],[-118.21496762357779,36.876830559918886],[-118.21496762357779,36.87701022297571],[-118.21523711816302,36.87701022297571]]]},"id":"-1315964+410512","properties":{"count":49,"label":1}},{"type":"Feature","geometry":{"geodesic":false,"type":"Polygon","coordinates":[[[-118.21550661274826,36.90360035538565],[-118.2151472866346,36.90360035538565],[-118.2151472866346,36.90369018691406],[-118.21550661274826,36.90369018691406],[-118.21550661274826,36.90360035538565]]]},"id":"-1315966+410809","properties":{"count":4,"label":1}},{"type":"Feature","geometry":{"geodesic":false,"type":"Polygon","coordinates":[[[-118.21532694969143,36.86021172716268],[-118.21523711816302,36.86021172716268],[-118.21523711816302,36.86030155869109],[-118.21532694969143,36.86030155869109],[-118.21532694969143,36.86021172716268]]]},"id":"-1315967+410326","properties":{"count":1,"label":1}},{"type":"Feature","geometry":{"geodesic":false,"type":"Polygon","coordinates":[[[-118.21559644427667,36.87593224463477],[-118.21541678121984,36.87593224463477],[-118.21541678121984,36.87602207616318],[-118.21559644427667,36.87602207616318],[-118.21559644427667,36.87593224463477]]]},"id":"-1315969+410501","properties":{"count":2,"label":1}},{"type":"Feature","geometry":{"geodesic":false,"type":"Polygon","coordinates":[[[-118.21559644427667,36.87620173922001],[-118.21550661274826,36.87620173922001],[-118.21550661274826,36.876291570748414],[-118.21559644427667,36.876291570748414],[-118.21559644427667,36.87620173922001]]]},"id":"-1315970+410504","properties":{"count":1,"label":1}},{"type":"Feature","geometry":{"geodesic":false,"type":"Polygon","coordinates":[[[-118.21613543344714,36.9167157585338],[-118.21595577039032,36.9167157585338],[-118.21595577039032,36.916805590062204],[-118.21613543344714,36.916805590062204],[-118.21613543344714,36.9167157585338]]]},"id":"-1315975+410955","properties":{"count":2,"label":1}},{"type":"Feature","geometry":{"geodesic":false,"type":"Polygon","coordinates":[[[-118.21631509650396,36.90449867066977],[-118.21631509650396,36.90404951302771],[-118.21640492803238,36.90404951302771],[-118.21640492803238,36.903780018442475],[-118.21649475956079,36.903780018442475],[-118.21649475956079,36.90369018691406],[-118.21622526497555,36.90369018691406],[-118.21622526497555,36.90360035538565],[-118.21604560191872,36.90360035538565],[-118.21604560191872,36.903510523857236],[-118.21595577039032,36.903510523857236],[-118.21595577039032,36.90342069232883],[-118.21586593886191,36.90342069232883],[-118.21586593886191,36.90306136621518],[-118.21568627580508,36.90306136621518],[-118.21568627580508,36.90270204010153],[-118.21559644427667,36.90270204010153],[-118.21559644427667,36.902342713987885],[-118.21550661274826,36.902342713987885],[-118.21550661274826,36.90225288245947],[-118.21541678121984,36.90225288245947],[-118.21541678121984,36.90216305093106],[-118.21523711816302,36.90216305093106],[-118.21523711816302,36.902073219402645],[-118.21541678121984,36.902073219402645],[-118.21541678121984,36.90198338787423],[-118.21550661274826,36.90198338787423],[-118.21550661274826,36.901893556345826],[-118.21532694969143,36.901893556345826],[-118.21532694969143,36.90180372481741],[-118.21550661274826,36.90180372481741],[-118.21550661274826,36.901713893289],[-118.21559644427667,36.901713893289],[-118.21559644427667,36.90135456717535],[-118.21550661274826,36.90135456717535],[-118.21550661274826,36.90126473564694],[-118.21559644427667,36.90126473564694],[-118.21559644427667,36.9009952410617],[-118.21550661274826,36.9009952410617],[-118.21550661274826,36.900905409533294],[-118.21532694969143,36.900905409533294],[-118.21532694969143,36.90081557800488],[-118.21523711816302,36.90081557800488],[-118.21523711816302,36.900456251891235],[-118.21532694969143,36.900456251891235],[-118.21532694969143,36.90036642036282],[-118.21541678121984,36.90036642036282],[-118.21541678121984,36.900186757305995],[-118.21559644427667,36.900186757305995],[-118.21559644427667,36.899737599663936],[-118.21568627580508,36.899737599663936],[-118.21568627580508,36.899468105078704],[-118.21559644427667,36.899468105078704],[-118.21559644427667,36.89937827355029],[-118.21532694969143,36.89937827355029],[-118.21532694969143,36.899198610493464],[-118.21541678121984,36.899198610493464],[-118.21541678121984,36.89892911590823],[-118.21532694969143,36.89892911590823],[-118.21532694969143,36.898749452851405],[-118.21523711816302,36.898749452851405],[-118.21523711816302,36.89883928437982],[-118.21505745510619,36.89883928437982],[-118.21505745510619,36.89910877896505],[-118.21496762357779,36.89910877896505],[-118.21496762357779,36.899198610493464],[-118.21487779204938,36.899198610493464],[-118.21487779204938,36.89910877896505],[-118.21442863440731,36.89910877896505],[-118.21442863440731,36.89883928437982],[-118.2143388028789,36.89883928437982],[-118.2143388028789,36.89901894743664],[-118.21406930829366,36.89901894743664],[-118.21406930829366,36.89937827355029],[-118.21424897135049,36.89937827355029],[-118.21424897135049,36.899468105078704],[-118.2143388028789,36.899468105078704],[-118.2143388028789,36.89955793660711],[-118.21442863440731,36.89955793660711],[-118.21442863440731,36.899737599663936],[-118.21451846593573,36.899737599663936],[-118.21451846593573,36.90009692577758],[-118.21442863440731,36.90009692577758],[-118.21442863440731,36.900186757305995],[-118.21451846593573,36.900186757305995],[-118.21451846593573,36.900456251891235],[-118.2143388028789,36.900456251891235],[-118.2143388028789,36.900635914948055],[-118.21424897135049,36.900635914948055],[-118.21424897135049,36.90081557800488],[-118.2143388028789,36.90081557800488],[-118.2143388028789,36.90135456717535],[-118.21442863440731,36.90135456717535],[-118.21442863440731,36.90144439870377],[-118.2143388028789,36.90144439870377],[-118.2143388028789,36.901624061760586],[-118.21424897135049,36.901624061760586],[-118.21424897135049,36.90180372481741],[-118.21415913982207,36.90180372481741],[-118.21415913982207,36.901893556345826],[-118.2143388028789,36.901893556345826],[-118.2143388028789,36.90180372481741],[-118.21460829746414,36.90180372481741],[-118.21460829746414,36.901893556345826],[-118.21469812899255,36.901893556345826],[-118.21469812899255,36.90198338787423],[-118.21460829746414,36.90198338787423],[-118.21460829746414,36.902073219402645],[-118.21496762357779,36.902073219402645],[-118.21496762357779,36.902342713987885],[-118.21505745510619,36.902342713987885],[-118.21505745510619,36.9024325455163],[-118.21496762357779,36.9024325455163],[-118.21496762357779,36.902522377044704],[-118.21505745510619,36.902522377044704],[-118.21505745510619,36.90288170315836],[-118.21496762357779,36.90288170315836],[-118.21496762357779,36.90297153468676],[-118.21478796052097,36.90297153468676],[-118.21478796052097,36.90270204010153],[-118.21469812899255,36.90270204010153],[-118.21469812899255,36.90297153468676],[-118.21478796052097,36.90297153468676],[-118.21478796052097,36.90315119774359],[-118.21496762357779,36.90315119774359],[-118.21496762357779,36.903330860800416],[-118.21532694969143,36.903330860800416],[-118.21532694969143,36.90342069232883],[-118.21541678121984,36.90342069232883],[-118.21541678121984,36.90306136621518],[-118.21523711816302,36.90306136621518],[-118.21523711816302,36.90288170315836],[-118.21559644427667,36.90288170315836],[-118.21559644427667,36.903510523857236],[-118.21586593886191,36.903510523857236],[-118.21586593886191,36.90360035538565],[-118.21595577039032,36.90360035538565],[-118.21595577039032,36.90369018691406],[-118.21604560191872,36.90369018691406],[-118.21604560191872,36.903780018442475],[-118.21622526497555,36.903780018442475],[-118.21622526497555,36.90404951302771],[-118.21586593886191,36.90404951302771],[-118.21586593886191,36.90413934455612],[-118.21595577039032,36.90413934455612],[-118.21595577039032,36.904229176084534],[-118.21604560191872,36.904229176084534],[-118.21604560191872,36.90440883914136],[-118.21622526497555,36.90440883914136],[-118.21622526497555,36.90449867066977],[-118.21631509650396,36.90449867066977]],[[-118.21496762357779,36.90054608341964],[-118.2151472866346,36.90054608341964],[-118.2151472866346,36.900456251891235],[-118.21496762357779,36.900456251891235],[-118.21496762357779,36.90054608341964]],[[-118.21478796052097,36.900905409533294],[-118.21487779204938,36.900905409533294],[-118.21487779204938,36.90081557800488],[-118.21478796052097,36.90081557800488],[-118.21478796052097,36.900905409533294]]]},"id":"-1315978+410818","properties":{"count":556,"label":1}},{"type":"Feature","geometry":{"geodesic":false,"type":"Polygon","coordinates":[[[-118.21640492803238,36.90458850219818],[-118.21631509650396,36.90458850219818],[-118.21631509650396,36.904678333726594],[-118.21640492803238,36.904678333726594],[-118.21640492803238,36.90458850219818]]]},"id":"-1315979+410820","properties":{"count":1,"label":1}},{"type":"Feature","geometry":{"geodesic":false,"type":"Polygon","coordinates":[[[-118.2165845910892,36.901893556345826],[-118.2165845910892,36.901713893289],[-118.21667442261761,36.901713893289],[-118.21667442261761,36.901624061760586],[-118.21685408567444,36.901624061760586],[-118.21685408567444,36.90153423023217],[-118.21694391720285,36.90153423023217],[-118.21694391720285,36.90135456717535],[-118.21703374873125,36.90135456717535],[-118.21703374873125,36.90126473564694],[-118.21712358025967,36.90126473564694],[-118.21712358025967,36.9009952410617],[-118.21703374873125,36.9009952410617],[-118.21703374873125,36.900905409533294],[-118.21712358025967,36.900905409533294],[-118.21712358025967,36.90072574647647],[-118.21703374873125,36.90072574647647],[-118.21703374873125,36.90054608341964],[-118.21712358025967,36.90054608341964],[-118.21712358025967,36.900186757305995],[-118.21703374873125,36.900186757305995],[-118.21703374873125,36.90000709424917],[-118.21694391720285,36.90000709424917],[-118.21694391720285,36.900186757305995],[-118.21667442261761,36.900186757305995],[-118.21667442261761,36.90027658883441],[-118.2165845910892,36.90027658883441],[-118.2165845910892,36.900456251891235],[-118.21667442261761,36.900456251891235],[-118.21667442261761,36.900635914948055],[-118.21649475956079,36.900635914948055],[-118.21649475956079,36.90081557800488],[-118.21667442261761,36.90081557800488],[-118.21667442261761,36.9009952410617],[-118.21649475956079,36.9009952410617],[-118.21649475956079,36.901893556345826],[-118.2165845910892,36.901893556345826]]]},"id":"-1315981+410789","properties":{"count":95,"label":1}},{"type":"Feature","geometry":{"geodesic":false,"type":"Polygon","coordinates":[[[-118.21667442261761,36.90476816525501],[-118.2165845910892,36.90476816525501],[-118.2165845910892,36.90485799678342],[-118.21667442261761,36.90485799678342],[-118.21667442261761,36.90476816525501]]]},"id":"-1315982+410822","properties":{"count":1,"label":1}},{"type":"Feature","geometry":{"geodesic":false,"type":"Polygon","coordinates":[[[-118.21712358025967,36.91707508464744],[-118.21712358025967,36.91698525311903],[-118.2173032433165,36.91698525311903],[-118.2173032433165,36.91689542159062],[-118.2173930748449,36.91689542159062],[-118.2173930748449,36.916805590062204],[-118.21721341178808,36.916805590062204],[-118.21721341178808,36.91689542159062],[-118.21703374873125,36.91689542159062],[-118.21703374873125,36.91707508464744],[-118.21712358025967,36.91707508464744]]]},"id":"-1315987+410958","properties":{"count":6,"label":1}},{"type":"Feature","geometry":{"geodesic":false,"type":"Polygon","coordinates":[[[-118.21829139012902,36.90665462735166],[-118.21829139012902,36.90647496429483],[-118.2181117270722,36.90647496429483],[-118.2181117270722,36.906115638181184],[-118.21838122165744,36.906115638181184],[-118.21838122165744,36.90593597512436],[-118.21847105318585,36.90593597512436],[-118.21847105318585,36.90584614359595],[-118.21856088471426,36.90584614359595],[-118.21856088471426,36.90575631206754],[-118.21865071624268,36.90575631206754],[-118.21865071624268,36.90557664901071],[-118.21856088471426,36.90557664901071],[-118.21856088471426,36.9054868174823],[-118.21865071624268,36.9054868174823],[-118.21865071624268,36.90539698595389],[-118.21856088471426,36.90539698595389],[-118.21856088471426,36.904947828311826],[-118.21847105318585,36.904947828311826],[-118.21847105318585,36.90485799678342],[-118.21829139012902,36.90485799678342],[-118.21829139012902,36.904678333726594],[-118.21820155860061,36.904678333726594],[-118.21820155860061,36.90449867066977],[-118.2181117270722,36.90449867066977],[-118.2181117270722,36.90440883914136],[-118.21757273790173,36.90440883914136],[-118.21757273790173,36.90431900761295],[-118.2173930748449,36.90431900761295],[-118.2173930748449,36.904229176084534],[-118.2173032433165,36.904229176084534],[-118.2173032433165,36.90404951302771],[-118.21721341178808,36.90404951302771],[-118.21721341178808,36.903780018442475],[-118.21712358025967,36.903780018442475],[-118.21712358025967,36.90386984997089],[-118.21685408567444,36.90386984997089],[-118.21685408567444,36.90404951302771],[-118.21694391720285,36.90404951302771],[-118.21694391720285,36.90440883914136],[-118.2173930748449,36.90440883914136],[-118.2173930748449,36.90458850219818],[-118.21757273790173,36.90458850219818],[-118.21757273790173,36.90476816525501],[-118.21766256943015,36.90476816525501],[-118.21766256943015,36.904947828311826],[-118.21775240095856,36.904947828311826],[-118.21775240095856,36.90503765984024],[-118.21793206401539,36.90503765984024],[-118.21793206401539,36.905217322897066],[-118.21766256943015,36.905217322897066],[-118.21766256943015,36.90539698595389],[-118.21775240095856,36.90539698595389],[-118.21775240095856,36.9054868174823],[-118.21793206401539,36.9054868174823],[-118.21793206401539,36.90557664901071],[-118.21802189554379,36.90557664901071],[-118.21802189554379,36.90584614359595],[-118.21793206401539,36.90584614359595],[-118.21793206401539,36.90602580665277],[-118.21775240095856,36.90602580665277],[-118.21775240095856,36.9062054697096],[-118.21784223248697,36.9062054697096],[-118.21784223248697,36.90656479582324],[-118.2181117270722,36.90656479582324],[-118.2181117270722,36.90665462735166],[-118.21829139012902,36.90665462735166]],[[-118.2181117270722,36.905666480539125],[-118.21838122165744,36.905666480539125],[-118.21838122165744,36.90557664901071],[-118.21847105318585,36.90557664901071],[-118.21847105318585,36.9054868174823],[-118.21856088471426,36.9054868174823],[-118.21856088471426,36.90539698595389],[-118.21847105318585,36.90539698595389],[-118.21847105318585,36.90530715442548],[-118.21838122165744,36.90530715442548],[-118.21838122165744,36.90539698595389],[-118.21820155860061,36.90539698595389],[-118.21820155860061,36.9054868174823],[-118.2181117270722,36.9054868174823],[-118.2181117270722,36.905666480539125]]]},"id":"-1315999+410842","properties":{"count":183,"label":1}},{"type":"Feature","geometry":{"geodesic":false,"type":"Polygon","coordinates":[[[-118.21856088471426,36.90764277416419],[-118.21856088471426,36.907552942635775],[-118.21847105318585,36.907552942635775],[-118.21847105318585,36.90746311110736],[-118.21838122165744,36.90746311110736],[-118.21838122165744,36.907552942635775],[-118.21847105318585,36.907552942635775],[-118.21847105318585,36.90764277416419],[-118.21856088471426,36.90764277416419]]]},"id":"-1316003+410853","properties":{"count":2,"label":1}},{"type":"Feature","geometry":{"geodesic":false,"type":"Polygon","coordinates":[[[-118.21874054777109,36.90485799678342],[-118.21874054777109,36.90476816525501],[-118.21865071624268,36.90476816525501],[-118.21865071624268,36.904678333726594],[-118.21847105318585,36.904678333726594],[-118.21847105318585,36.90476816525501],[-118.21856088471426,36.90476816525501],[-118.21856088471426,36.90485799678342],[-118.21874054777109,36.90485799678342]]]},"id":"-1316004+410822","properties":{"count":4,"label":1}},{"type":"Feature","geometry":{"geodesic":false,"type":"Polygon","coordinates":[[[-118.2226033034928,36.866050776509454],[-118.22251347196439,36.866050776509454],[-118.22251347196439,36.86614060803787],[-118.2226033034928,36.86614060803787],[-118.2226033034928,36.866050776509454]]]},"id":"-1316048+410391","properties":{"count":1,"label":1}},{"type":"Feature","geometry":{"geodesic":false,"type":"Polygon","coordinates":[[[-118.22538808087357,36.87126100515735],[-118.22529824934516,36.87126100515735],[-118.22529824934516,36.87135083668576],[-118.22538808087357,36.87135083668576],[-118.22538808087357,36.87126100515735]]]},"id":"-1316079+410449","properties":{"count":1,"label":1}}]}